QIANFAN-33              
1 61566U 24185Q   25281.19987102  .00000519  00000+0  36595-3 0  9994
2 61566  88.9739  86.1139 0007535 155.3300 204.8239 13.96466064 60015
QIANFAN-34              
1 61567U 24185R   25281.14847778  .00000545  00000+0  34712-3 0  9992
2 61567  88.9718  85.7703 0006423 160.4179 199.7249 14.02218023 60168
QIANFAN-35              
1 61568U 24185S   25281.17396678  .00001262  00000+0  50493-3 0  9995
2 61568  88.9746  84.5739 0008209 129.9587 230.2330 14.27798976 60825
QIANFAN-36              
1 61569U 24185T   25281.19516975  .00000154  00000+0  20467-3 0  9999
2 61569  88.9726  87.8720 0004738 219.0524 141.0288 13.55561469 59043
QIANFAN-37              
1 62238U 24232B   25281.14913983  .00000138  00000+0  19513-3 0  9993
2 62238  89.0005  47.9377 0001127  98.4773 261.6506 13.50968858 90313
QIANFAN-38              
1 62239U 24232C   25281.17387353  .00000117  00000+0  16193-3 0  9991
2 62239  89.0012  47.8466 0015077  31.5749 328.6303 13.50977400 90378
QIANFAN-39              
1 62240U 24232D   25281.20433678  .00000686  00000+0  28536-3 0  9994
2 62240  89.0010  44.7896 0014076 295.8453  64.1288 14.25279668 92051
QIANFAN-40              
1 62241U 24232E   25281.20675865  .00000133  00000+0  18761-3 0  9997
2 62241  89.0040  47.4095 0014334  39.5488 320.6706 13.50977008 90743
